start=new Date('2022-10-24T00:00:00.000Z').valueOf();
sats=[{"MEAN_ELEMENT_THEORY":"SGP4","CENTER_NAME":"EARTH","PERIAPSIS":"546.090","LAUNCH_DATE":"2021-05-04","SEMIMAJOR_AXIS":"6925.341","SITE":"AFETR","BSTAR":"0.00006611000000","MEAN_MOTION_DDOT":"0.0000000000000","INCLINATION":"53.0535","EPOCH":"2022-10-23T17:33:23.694336","REF_FRAME":"TEME","MEAN_ANOMALY":"225.6137","DECAY_DATE":null,"MEAN_MOTION_DOT":"0.00000703","TLE_LINE1":"1 48365U 21038N   22296.73152424  .00000703  00000-0  66110-4 0  9997","PERIOD":"95.592","ELEMENT_SET_NO":"999","MEAN_MOTION":"15.06402412","OBJECT_ID":"2021-038N","EPHEMERIS_TYPE":"0","OBJECT_NAME":"STARLINK-2608","RCS_SIZE":"LARGE","REV_AT_EPOCH":"8126","FILE":"3630604","COUNTRY_CODE":"US","TLE_LINE2":"2 48365  53.0535 131.5819 0001612 134.4984 225.6137 15.06402412 81268","CLASSIFICATION_TYPE":"U","OBJECT_TYPE":"PAYLOAD","APOAPSIS":"548.323","NORAD_CAT_ID":"48365","ARG_OF_PERICENTER":"134.4984","RA_OF_ASC_NODE":"131.5819","GP_ID":"215994609","ECCENTRICITY":"0.00016120","TIME_SYSTEM":"UTC"},{"ECCENTRICITY":"0.00011990","TIME_SYSTEM":"UTC","GP_ID":"215993357","NORAD_CAT_ID":"48366","RA_OF_ASC_NODE":"126.3545","ARG_OF_PERICENTER":"129.5674","CLASSIFICATION_TYPE":"U","TLE_LINE2":"2 48366  53.0538 126.3545 0001199 129.5674 230.5421 15.06401938 81332","OBJECT_TYPE":"PAYLOAD","APOAPSIS":"548.038","COUNTRY_CODE":"US","RCS_SIZE":"LARGE","REV_AT_EPOCH":"8133","FILE":"3630604","OBJECT_NAME":"STARLINK-2631","MEAN_MOTION":"15.06401938","OBJECT_ID":"2021-038P","EPHEMERIS_TYPE":"0","PERIOD":"95.592","ELEMENT_SET_NO":"999","REF_FRAME":"TEME","DECAY_DATE":null,"MEAN_ANOMALY":"230.5421","TLE_LINE1":"1 48366U 21038P   22296.78543926  .00001204  00000-0  99698-4 0  9998","MEAN_MOTION_DOT":"0.00001204","INCLINATION":"53.0538","EPOCH":"2022-10-23T18:51:01.952064","MEAN_MOTION_DDOT":"0.0000000000000","BSTAR":"0.00009969800000","PERIAPSIS":"546.377","LAUNCH_DATE":"2021-05-04","SEMIMAJOR_AXIS":"6925.343","SITE":"AFETR","MEAN_ELEMENT_THEORY":"SGP4","CENTER_NAME":"EARTH"},{"COUNTRY_CODE":"US","RCS_SIZE":"LARGE","REV_AT_EPOCH":"8132","FILE":"3630604","OBJECT_NAME":"STARLINK-2643","MEAN_MOTION":"15.06409196","OBJECT_ID":"2021-038Q","EPHEMERIS_TYPE":"0","TIME_SYSTEM":"UTC","ECCENTRICITY":"0.00013100","GP_ID":"215993607","NORAD_CAT_ID":"48367","RA_OF_ASC_NODE":"126.6614","ARG_OF_PERICENTER":"121.7313","OBJECT_TYPE":"PAYLOAD","TLE_LINE2":"2 48367  53.0530 126.6614 0001310 121.7313 238.3803 15.06409196 81327","CLASSIFICATION_TYPE":"U","APOAPSIS":"548.093","BSTAR":"0.00012011000000","PERIAPSIS":"546.278","LAUNCH_DATE":"2021-05-04","SITE":"AFETR","SEMIMAJOR_AXIS":"6925.320","MEAN_ELEMENT_THEORY":"SGP4","CENTER_NAME":"EARTH","PERIOD":"95.592","ELEMENT_SET_NO":"999","REF_FRAME":"TEME","DECAY_DATE":null,"MEAN_ANOMALY":"238.3803","TLE_LINE1":"1 48367U 21038Q   22296.71539420  .00001508  00000-0  12011-3 0  9996","MEAN_MOTION_DOT":"0.00001508","INCLINATION":"53.0530","EPOCH":"2022-10-23T17:10:10.058880","MEAN_MOTION_DDOT":"0.0000000000000"},{"COUNTRY_CODE":"US","REV_AT_EPOCH":"8133","RCS_SIZE":"LARGE","FILE":"3630604","OBJECT_NAME":"STARLINK-2623","MEAN_MOTION":"15.06397873","OBJECT_ID":"2021-038R","EPHEMERIS_TYPE":"0","TIME_SYSTEM":"UTC","ECCENTRICITY":"0.00016420","GP_ID":"215994358","NORAD_CAT_ID":"48368","RA_OF_ASC_NODE":"126.7418","ARG_OF_PERICENTER":"132.0949","TLE_LINE2":"2 48368  53.0529 126.7418 0001642 132.0949 228.0180 15.06397873 81330","OBJECT_TYPE":"PAYLOAD","CLASSIFICATION_TYPE":"U","APOAPSIS":"548.357","BSTAR":"-0.00003517800000","PERIAPSIS":"546.083","LAUNCH_DATE":"2021-05-04","SITE":"AFETR","SEMIMAJOR_AXIS":"6925.355","MEAN_ELEMENT_THEORY":"SGP4","CENTER_NAME":"EARTH","PERIOD":"95.592","ELEMENT_SET_NO":"999","REF_FRAME":"TEME","DECAY_DATE":null,"MEAN_ANOMALY":"228.0180","MEAN_MOTION_DOT":"-0.00000805","TLE_LINE1":"1 48368U 21038R   22296.75967360 -.00000805  00000-0 -35178-4 0  9990","INCLINATION":"53.0529","EPOCH":"2022-10-23T18:13:55.799040","MEAN_MOTION_DDOT":"0.0000000000000"},{"EPOCH":"2022-10-23T18:40:25.039776","INCLINATION":"53.0535","MEAN_MOTION_DDOT":"0.0000000000000","PERIOD":"95.592","ELEMENT_SET_NO":"999","DECAY_DATE":null,"MEAN_ANOMALY":"254.5751","MEAN_MOTION_DOT":"0.00000759","TLE_LINE1":"1 48369U 21038S   22296.77806759  .00000759  00000-0  69831-4 0  9996","REF_FRAME":"TEME","CENTER_NAME":"EARTH","MEAN_ELEMENT_THEORY":"SGP4","BSTAR":"0.00006983100000","SEMIMAJOR_AXIS":"6925.348","SITE":"AFETR","PERIAPSIS":"546.282","LAUNCH_DATE":"2021-05-04","NORAD_CAT_ID":"48369","ARG_OF_PERICENTER":"105.5387","RA_OF_ASC_NODE":"126.3815","APOAPSIS":"548.145","CLASSIFICATION_TYPE":"U","TLE_LINE2":"2 48369  53.0535 126.3815 0001345 105.5387 254.5751 15.06400042 81337","OBJECT_TYPE":"PAYLOAD","ECCENTRICITY":"0.00013450","TIME_SYSTEM":"UTC","GP_ID":"215995110","OBJECT_NAME":"STARLINK-2641","EPHEMERIS_TYPE":"0","MEAN_MOTION":"15.06400042","OBJECT_ID":"2021-038S","COUNTRY_CODE":"US","REV_AT_EPOCH":"8133","RCS_SIZE":"LARGE","FILE":"3630604"},{"BSTAR":"0.00005446700000","LAUNCH_DATE":"2021-05-04","PERIAPSIS":"546.235","SEMIMAJOR_AXIS":"6925.330","SITE":"AFETR","MEAN_ELEMENT_THEORY":"SGP4","CENTER_NAME":"EARTH","ELEMENT_SET_NO":"999","PERIOD":"95.592","REF_FRAME":"TEME","MEAN_MOTION_DOT":"0.00000530","TLE_LINE1":"1 48370U 21038T   22296.70802614  .00000530  00000-0  54467-4 0  9993","MEAN_ANOMALY":"243.7869","DECAY_DATE":null,"INCLINATION":"53.0542","EPOCH":"2022-10-23T16:59:33.458496","MEAN_MOTION_DDOT":"0.0000000000000","COUNTRY_CODE":"US","FILE":"3630604","REV_AT_EPOCH":"8132","RCS_SIZE":"LARGE","OBJECT_NAME":"STARLINK-2621","OBJECT_ID":"2021-038T","MEAN_MOTION":"15.06406207","EPHEMERIS_TYPE":"0","TIME_SYSTEM":"UTC","ECCENTRICITY":"0.00013860","GP_ID":"215993858","RA_OF_ASC_NODE":"126.6948","ARG_OF_PERICENTER":"116.3263","NORAD_CAT_ID":"48370","OBJECT_TYPE":"PAYLOAD","TLE_LINE2":"2 48370  53.0542 126.6948 0001386 116.3263 243.7869 15.06406207 81323","CLASSIFICATION_TYPE":"U","APOAPSIS":"548.154"},{"CENTER_NAME":"EARTH","MEAN_ELEMENT_THEORY":"SGP4","SEMIMAJOR_AXIS":"6925.315","SITE":"AFETR","PERIAPSIS":"546.248","LAUNCH_DATE":"2021-05-04","BSTAR":"0.00045725000000","MEAN_MOTION_DDOT":"0.0000000000000","EPOCH":"2022-10-23T20:05:19.878432","INCLINATION":"53.0517","DECAY_DATE":null,"MEAN_ANOMALY":"239.1506","TLE_LINE1":"1 48371U 21038U   22296.83703563  .00006538  00000-0  45725-3 0  9991","MEAN_MOTION_DOT":"0.00006538","REF_FRAME":"TEME","PERIOD":"95.591","ELEMENT_SET_NO":"999","EPHEMERIS_TYPE":"0","MEAN_MOTION":"15.06410866","OBJECT_ID":"2021-038U","OBJECT_NAME":"STARLINK-2589","REV_AT_EPOCH":"8134","RCS_SIZE":"LARGE","FILE":"3630604","COUNTRY_CODE":"US","APOAPSIS":"548.112","TLE_LINE2":"2 48371  53.0517 126.1192 0001346 120.9615 239.1506 15.06410866 81345","OBJECT_TYPE":"PAYLOAD","CLASSIFICATION_TYPE":"U","NORAD_CAT_ID":"48371","ARG_OF_PERICENTER":"120.9615","RA_OF_ASC_NODE":"126.1192","GP_ID":"215994108","ECCENTRICITY":"0.00013460","TIME_SYSTEM":"UTC"},{"CENTER_NAME":"EARTH","MEAN_ELEMENT_THEORY":"SGP4","BSTAR":"0.00003782200000","SEMIMAJOR_AXIS":"6925.371","SITE":"AFETR","LAUNCH_DATE":"2021-05-04","PERIAPSIS":"546.274","EPOCH":"2022-10-23T20:00:01.756224","INCLINATION":"53.0534","MEAN_MOTION_DDOT":"0.0000000000000","ELEMENT_SET_NO":"999","PERIOD":"95.593","MEAN_MOTION_DOT":"0.00000282","TLE_LINE1":"1 48372U 21038V   22296.83335366  .00000282  00000-0  37822-4 0  9994","MEAN_ANOMALY":"251.3579","DECAY_DATE":null,"REF_FRAME":"TEME","OBJECT_NAME":"STARLINK-2572","EPHEMERIS_TYPE":"0","OBJECT_ID":"2021-038V","MEAN_MOTION":"15.06392806","COUNTRY_CODE":"US","FILE":"3630482","REV_AT_EPOCH":"8193","RCS_SIZE":"LARGE","ARG_OF_PERICENTER":"108.7561","RA_OF_ASC_NODE":"126.1342","NORAD_CAT_ID":"48372","APOAPSIS":"548.197","CLASSIFICATION_TYPE":"U","TLE_LINE2":"2 48372  53.0534 126.1342 0001388 108.7561 251.3579 15.06392806 81936","OBJECT_TYPE":"PAYLOAD","TIME_SYSTEM":"UTC","ECCENTRICITY":"0.00013880","GP_ID":"215969869"},{"NORAD_CAT_ID":"48373","RA_OF_ASC_NODE":"126.4370","ARG_OF_PERICENTER":"122.2093","CLASSIFICATION_TYPE":"U","TLE_LINE2":"2 48373  53.0536 126.4370 0001516 122.2093 237.9043 15.06401470 81335","OBJECT_TYPE":"PAYLOAD","APOAPSIS":"548.259","TIME_SYSTEM":"UTC","ECCENTRICITY":"0.00015160","GP_ID":"215994610","OBJECT_NAME":"STARLINK-2609","MEAN_MOTION":"15.06401470","OBJECT_ID":"2021-038W","EPHEMERIS_TYPE":"0","COUNTRY_CODE":"US","RCS_SIZE":"LARGE","REV_AT_EPOCH":"8133","FILE":"3630604","INCLINATION":"53.0536","EPOCH":"2022-10-23T18:19:10.819488","MEAN_MOTION_DDOT":"0.0000000000000","PERIOD":"95.592","ELEMENT_SET_NO":"999","REF_FRAME":"TEME","MEAN_ANOMALY":"237.9043","DECAY_DATE":null,"MEAN_MOTION_DOT":"0.00000784","TLE_LINE1":"1 48373U 21038W   22296.76331967  .00000784  00000-0  71545-4 0  9997","MEAN_ELEMENT_THEORY":"SGP4","CENTER_NAME":"EARTH","BSTAR":"0.00007154500000","PERIAPSIS":"546.159","LAUNCH_DATE":"2021-05-04","SEMIMAJOR_AXIS":"6925.344","SITE":"AFETR"},{"BSTAR":"0.00003493700000","SITE":"AFETR","SEMIMAJOR_AXIS":"6925.333","PERIAPSIS":"546.255","LAUNCH_DATE":"2021-05-04","CENTER_NAME":"EARTH","MEAN_ELEMENT_THEORY":"SGP4","PERIOD":"95.592","ELEMENT_SET_NO":"999","DECAY_DATE":null,"MEAN_ANOMALY":"247.0703","TLE_LINE1":"1 48374U 21038X   22296.82502854  .00000239  00000-0  34937-4 0  9999","MEAN_MOTION_DOT":"0.00000239","REF_FRAME":"TEME","EPOCH":"2022-10-23T19:48:02.465856","INCLINATION":"53.0546","MEAN_MOTION_DDOT":"0.0000000000000","COUNTRY_CODE":"US","REV_AT_EPOCH":"8134","RCS_SIZE":"LARGE","FILE":"3630604","OBJECT_NAME":"STARLINK-2604","EPHEMERIS_TYPE":"0","MEAN_MOTION":"15.06405006","OBJECT_ID":"2021-038X","TIME_SYSTEM":"UTC","ECCENTRICITY":"0.00013620","GP_ID":"215993358","NORAD_CAT_ID":"48374","ARG_OF_PERICENTER":"113.0430","RA_OF_ASC_NODE":"126.1571","APOAPSIS":"548.141","TLE_LINE2":"2 48374  53.0546 126.1571 0001362 113.0430 247.0703 15.06405006 81344","OBJECT_TYPE":"PAYLOAD","CLASSIFICATION_TYPE":"U"}];
